[
    {
        "Altitude(m)": 703151.1987217714,
        "Argument of Periapsis(deg)": 0.0034170363559881197,
        "Eccentricity": 0.0,
        "Inclination(deg)": 45.0,
        "Latitude(deg)": 2.401746035742322,
        "Longitude(deg)": -62.81962465157626,
        "Mean Anomaly(deg)": 3.459964994244248,
        "RAAN(deg)": 34.996774417562534,
        "Satellite Name": "Constellation 1 154",
        "Satellite Number": 154,
        "Semi-Major Axis(m)": 7083131.272910544,
        "Time(s)": 57
    },
    {
        "Altitude(m)": 703146.7584650799,
        "Argument of Periapsis(deg)": 0.003476984362233526,
        "Eccentricity": 0.0,
        "Inclination(deg)": 45.0,
        "Latitude(deg)": 2.4449264700183266,
        "Longitude(deg)": -62.780795904788064,
        "Mean Anomaly(deg)": 3.5206661344941472,
        "RAAN(deg)": 34.99671782839697,
        "Satellite Name": "Constellation 1 154",
        "Satellite Number": 154,
        "Semi-Major Axis(m)": 7083131.272910544,
        "Time(s)": 58
    },
    {
        "Altitude(m)": 703142.3390766055,
        "Argument of Periapsis(deg)": 0.003536932368478932,
        "Eccentricity": 0.0,
        "Inclination(deg)": 45.0,
        "Latitude(deg)": 2.4881055587365464,
        "Longitude(deg)": -62.741964520970804,
        "Mean Anomaly(deg)": 3.581367274744047,
        "RAAN(deg)": 34.99666123923139,
        "Satellite Name": "Constellation 1 154",
        "Satellite Number": 154,
        "Semi-Major Axis(m)": 7083131.272910544,
        "Time(s)": 59
    },
    {
        "Altitude(m)": 703137.9405574056,
        "Argument of Periapsis(deg)": 0.003596880374724337,
        "Eccentricity": 0.0,
        "Inclination(deg)": 45.0,
        "Latitude(deg)": 2.5312832767946123,
        "Longitude(deg)": -62.70313011543428,
        "Mean Anomaly(deg)": 3.642068414993946,
        "RAAN(deg)": 34.996604650065834,
        "Satellite Name": "Constellation 1 154",
        "Satellite Number": 154,
        "Semi-Major Axis(m)": 7083131.272910544,
        "Time(s)": 60
    },
    {
        "Altitude(m)": 703133.5629084436,
        "Argument of Periapsis(deg)": 0.0036568283809697427,
        "Eccentricity": 0.0,
        "Inclination(deg)": 45.0,
        "Latitude(deg)": 2.5744595990842694,
        "Longitude(deg)": -62.6642928077729,
        "Mean Anomaly(deg)": 3.7027695552438384,
        "RAAN(deg)": 34.99654806090026,
        "Satellite Name": "Constellation 1 154",
        "Satellite Number": 154,
        "Semi-Major Axis(m)": 7083131.272910544,
        "Time(s)": 61
    },
    {
        "Altitude(m)": 703129.2061305863,
        "Argument of Periapsis(deg)": 0.003716776387215149,
        "Eccentricity": 0.0,
        "Inclination(deg)": 45.0,
        "Latitude(deg)": 2.6176345004917407,
        "Longitude(deg)": -62.62545254947718,
        "Mean Anomaly(deg)": 3.7634706954937442,
        "RAAN(deg)": 34.996491471734686,
        "Satellite Name": "Constellation 1 154",
        "Satellite Number": 154,
        "Semi-Major Axis(m)": 7083131.272910544,
        "Time(s)": 62
    },
    {
        "Altitude(m)": 703124.8702246101,
        "Argument of Periapsis(deg)": 0.003776724393460554,
        "Eccentricity": 0.0,
        "Inclination(deg)": 45.0,
        "Latitude(deg)": 2.6608079558974866,
        "Longitude(deg)": -62.58660929203091,
        "Mean Anomaly(deg)": 3.8241718357436434,
        "RAAN(deg)": 34.99643488256911,
        "Satellite Name": "Constellation 1 154",
        "Satellite Number": 154,
        "Semi-Major Axis(m)": 7083131.272910544,
        "Time(s)": 63
    },
    {
        "Altitude(m)": 703120.5551912,
        "Argument of Periapsis(deg)": 0.003836672399705959,
        "Eccentricity": 0.0,
        "Inclination(deg)": 45.0,
        "Latitude(deg)": 2.7039799401761413,
        "Longitude(deg)": -62.547762986910996,
        "Mean Anomaly(deg)": 3.884872975993536,
        "RAAN(deg)": 34.99637829340355,
        "Satellite Name": "Constellation 1 154",
        "Satellite Number": 154,
        "Semi-Major Axis(m)": 7083131.272910544,
        "Time(s)": 64
    },
    {
        "Altitude(m)": 703116.261030943,
        "Argument of Periapsis(deg)": 0.003896620405951365,
        "Eccentricity": 0.0,
        "Inclination(deg)": 45.0,
        "Latitude(deg)": 2.7471504281964325,
        "Longitude(deg)": -62.50891358558721,
        "Mean Anomaly(deg)": 3.9455741162434355,
        "RAAN(deg)": 34.99632170423798,
        "Satellite Name": "Constellation 1 154",
        "Satellite Number": 154,
        "Semi-Major Axis(m)": 7083131.272910544,
        "Time(s)": 65
    },
    {
        "Altitude(m)": 703111.9877443311,
        "Argument of Periapsis(deg)": 0.003956568412196771,
        "Eccentricity": 0.0,
        "Inclination(deg)": 45.0,
        "Latitude(deg)": 2.790319394821057,
        "Longitude(deg)": -62.470061039522214,
        "Mean Anomaly(deg)": 4.006275256493341,
        "RAAN(deg)": 34.99626511507241,
        "Satellite Name": "Constellation 1 154",
        "Satellite Number": 154,
        "Semi-Major Axis(m)": 7083131.272910544,
        "Time(s)": 66
    },
    {
        "Altitude(m)": 703107.7353317748,
        "Argument of Periapsis(deg)": 0.004016516418442176,
        "Eccentricity": 0.0,
        "Inclination(deg)": 45.0,
        "Latitude(deg)": 2.8334868149064873,
        "Longitude(deg)": -62.431205468268644,
        "Mean Anomaly(deg)": 4.06697639674324,
        "RAAN(deg)": 34.996208525906844,
        "Satellite Name": "Constellation 1 154",
        "Satellite Number": 154,
        "Semi-Major Axis(m)": 7083131.272910544,
        "Time(s)": 67
    },
    {
        "Altitude(m)": 703103.5037935744,
        "Argument of Periapsis(deg)": 0.004076464424687581,
        "Eccentricity": 0.0,
        "Inclination(deg)": 45.0,
        "Latitude(deg)": 2.87665266330336,
        "Longitude(deg)": -62.392346487080395,
        "Mean Anomaly(deg)": 4.12767753699314,
        "RAAN(deg)": 34.99615193674127,
        "Satellite Name": "Constellation 1 154",
        "Satellite Number": 154,
        "Semi-Major Axis(m)": 7083131.272910544,
        "Time(s)": 68
    },
    {
        "Altitude(m)": 703099.2931299541,
        "Argument of Periapsis(deg)": 0.004136412430932987,
        "Eccentricity": 0.0,
        "Inclination(deg)": 45.0,
        "Latitude(deg)": 2.919816914855659,
        "Longitude(deg)": -62.35348421549533,
        "Mean Anomaly(deg)": 4.1883786772430325,
        "RAAN(deg)": 34.9960953475757,
        "Satellite Name": "Constellation 1 154",
        "Satellite Number": 154,
        "Semi-Major Axis(m)": 7083131.272910544,
        "Time(s)": 69
    },
    {
        "Altitude(m)": 703095.1033410269,
        "Argument of Periapsis(deg)": 0.004196360437178394,
        "Eccentricity": 0.0,
        "Inclination(deg)": 45.0,
        "Latitude(deg)": 2.962979544401127,
        "Longitude(deg)": -62.31461860494642,
        "Mean Anomaly(deg)": 4.249079817492931,
        "RAAN(deg)": 34.99603875841014,
        "Satellite Name": "Constellation 1 154",
        "Satellite Number": 154,
        "Semi-Major Axis(m)": 7083131.272910544,
        "Time(s)": 70
    },
    {
        "Altitude(m)": 703090.9344268305,
        "Argument of Periapsis(deg)": 0.004256308443423799,
        "Eccentricity": 0.0,
        "Inclination(deg)": 45.0,
        "Latitude(deg)": 3.0061405267710075,
        "Longitude(deg)": -62.27574960685918,
        "Mean Anomaly(deg)": 4.309780957742837,
        "RAAN(deg)": 34.99598216924456,
        "Satellite Name": "Constellation 1 154",
        "Satellite Number": 154,
        "Semi-Major Axis(m)": 7083131.272910544,
        "Time(s)": 71
    },
    {
        "Altitude(m)": 703086.7863872997,
        "Argument of Periapsis(deg)": 0.004316256449669204,
        "Eccentricity": 0.0,
        "Inclination(deg)": 45.0,
        "Latitude(deg)": 3.0492998367899946,
        "Longitude(deg)": -62.23687717265123,
        "Mean Anomaly(deg)": 4.370482097992737,
        "RAAN(deg)": 34.995925580078996,
        "Satellite Name": "Constellation 1 154",
        "Satellite Number": 154,
        "Semi-Major Axis(m)": 7083131.272910544,
        "Time(s)": 72
    },
    {
        "Altitude(m)": 703082.6592222719,
        "Argument of Periapsis(deg)": 0.00437620445591461,
        "Eccentricity": 0.0,
        "Inclination(deg)": 45.0,
        "Latitude(deg)": 3.0924574492761234,
        "Longitude(deg)": -62.19800125373247,
        "Mean Anomaly(deg)": 4.431183238242629,
        "RAAN(deg)": 34.99586899091342,
        "Satellite Name": "Constellation 1 154",
        "Satellite Number": 154,
        "Semi-Major Axis(m)": 7083131.272910544,
        "Time(s)": 73
    },
    {
        "Altitude(m)": 703078.5529314992,
        "Argument of Periapsis(deg)": 0.004436152462160016,
        "Eccentricity": 0.0,
        "Inclination(deg)": 45.0,
        "Latitude(deg)": 3.135613339040571,
        "Longitude(deg)": -62.15912196960165,
        "Mean Anomaly(deg)": 4.491884378492529,
        "RAAN(deg)": 34.995812401747855,
        "Satellite Name": "Constellation 1 154",
        "Satellite Number": 154,
        "Semi-Major Axis(m)": 7083131.272910544,
        "Time(s)": 74
    },
    {
        "Altitude(m)": 703074.4675146427,
        "Argument of Periapsis(deg)": 0.0044961004684054215,
        "Eccentricity": 0.0,
        "Inclination(deg)": 45.0,
        "Latitude(deg)": 3.178767480888013,
        "Longitude(deg)": -62.120238935458495,
        "Mean Anomaly(deg)": 4.552585518742434,
        "RAAN(deg)": 34.99575581258228,
        "Satellite Name": "Constellation 1 154",
        "Satellite Number": 154,
        "Semi-Major Axis(m)": 7083131.272910544,
        "Time(s)": 75
    }
]